[{"OBJECT_NAME":"STARLINK-34663","OBJECT_ID":"2025-150T","EPOCH":"2026-03-09T14:35:13.289280","MEAN_MOTION":14.98334733,"ECCENTRICITY":0.0003609,"INCLINATION":70.0019,"RA_OF_ASC_NODE":134.7012,"ARG_OF_PERICENTER":271.2876,"MEAN_ANOMALY":88.7869,"EPHEMERIS_TYPE":0,"CLASSIFICATION_TYPE":"U","NORAD_CAT_ID":64807,"ELEMENT_SET_NO":999,"REV_AT_EPOCH":3650,"BSTAR":0.0001693,"MEAN_MOTION_DOT":1.928e-5,"MEAN_MOTION_DDOT":0},{"OBJECT_NAME":"COSMOS 2251 DEB","OBJECT_ID":"1993-036AWS","EPOCH":"2026-03-08T21:06:04.726368","MEAN_MOTION":14.95261151,"ECCENTRICITY":0.00284276,"INCLINATION":73.9951,"RA_OF_ASC_NODE":273.3001,"ARG_OF_PERICENTER":6.025,"MEAN_ANOMALY":354.1269,"EPHEMERIS_TYPE":0,"CLASSIFICATION_TYPE":"U","NORAD_CAT_ID":36000,"ELEMENT_SET_NO":999,"REV_AT_EPOCH":61455,"BSTAR":0.0026863031,"MEAN_MOTION_DOT":0.00029903,"MEAN_MOTION_DDOT":0}]
